UWE-3                   
1 39446U 13066AG  26065.31888782  .00006303  00000+0  55214-3 0  9997
2 39446  97.8596  20.8378 0048711 303.9606  55.6990 14.96131276662196
UNISAT-6                
1 40012U 14033C   26065.64661593  .00004967  00000+0  54168-3 0  9999
2 40012  97.7722 220.2879 0046309  47.7716 312.7415 14.87611173630918
DUCHIFAT-1              
1 40021U 14033M   26065.08356619  .00055499  00000+0  10109-2 0  9999
2 40021  98.0634 111.0868 0006460  95.0854 265.1132 15.49284424639710
QB50P1                  
1 40025U 14033R   26065.47681514  .00011707  00000+0  60497-3 0  9991
2 40025  98.1009  69.5425 0007929 206.5522 153.5304 15.16433497637459
LILACSAT-2              
1 40908U 15049K   26065.86447727  .00021712  00000+0  41798-3 0  9998
2 40908  97.4810  98.9906 0005602 259.4830 100.5789 15.47896322579904
FOX-1A (AO-85)          
1 40967U 15058D   26065.77409044  .00005359  00000+0  48410-3 0  9990
2 40967  64.7742 237.0932 0129053  97.0911 264.4896 14.90324942 98308
CAS-2T & KS-1Q          
1 41847U 16066G   26065.45136730  .00001795  00000+0  25865-3 0  9991
2 41847  98.3892 142.3371 0343760  81.2793 282.7167 14.44457397489966
RADFXSAT (FOX-1B)       
1 43017U 17073E   26065.15123626  .00011518  00000+0  52275-3 0  9997
2 43017  97.4864 294.5226 0154946 324.4724  34.6264 15.10783055449827
DIWATA-2B               
1 43678U 18084H   26065.85371750  .00004019  00000+0  32845-3 0  9992
2 43678  98.1035 257.7745 0011470 135.6021 224.6122 14.99944492400877
ES'HAIL 2               
1 43700U 18090A   26064.51699441  .00000137  00000+0  00000+0 0  9998
2 43700   0.0102 207.4790 0002702 172.6625 355.0003  1.00272028 26633
FOX-1CLIFF (AO-95)      
1 43770U 18099N   26065.42669264  .00013994  00000+0  57434-3 0  9997
2 43770  97.4512 126.1666 0008637 359.2830   0.8394 15.24305372397558
ITASAT                  
1 43786U 18099AE  26065.08226506  .00008451  00000+0  42272-3 0  9990
2 43786  97.4167 118.6838 0012563 359.4146   0.7071 15.17603175397266
JY1SAT (JO-97)          
1 43803U 18099AX  26065.74371977  .00023062  00000+0  79105-3 0  9996
2 43803  97.4256 128.4202 0004679 270.6920  89.3784 15.30161965397942
UWE-4                   
1 43880U 18111E   26065.55589688  .00038881  00000+0  98072-3 0  9994
2 43880  97.5855 349.7309 0008073 352.3854   7.7267 15.39725920394959
TIANYAN 01              
1 44881U 19093C   26065.85820586  .00000520  00000+0  64986-4 0  9991
2 44881  97.7617 140.5635 0014987  66.1916 294.0870 14.86331750336219
RS-44 & BREEZE-KM R/B   
1 44909U 19096E   26065.43285667  .00000002  00000+0 -37597-4 0  9998
2 44909  82.5196  47.9789 0218063  24.9195 336.2247 12.79747385289204
SALSAT                  
1 46495U 20068K   26065.39904136  .00011274  00000+0  41380-3 0  9991
2 46495  97.8855  62.3380 0008503 310.6744  49.3754 15.28102969299651
