[{"OBJECT_NAME":"UWE-3","OBJECT_ID":"2013-066AG","EPOCH":"2026-03-06T07:39:11.907648","MEAN_MOTION":14.96131276,"ECCENTRICITY":0.00487115,"INCLINATION":97.8596,"RA_OF_ASC_NODE":20.8378,"ARG_OF_PERICENTER":303.9606,"MEAN_ANOMALY":55.699,"EPHEMERIS_TYPE":0,"CLASSIFICATION_TYPE":"U","NORAD_CAT_ID":39446,"ELEMENT_SET_NO":999,"REV_AT_EPOCH":66219,"BSTAR":0.0005521353,"MEAN_MOTION_DOT":6.303e-5,"MEAN_MOTION_DDOT":0},{"OBJECT_NAME":"UNISAT-6","OBJECT_ID":"2014-033C","EPOCH":"2026-03-06T15:31:07.616352","MEAN_MOTION":14.87611173,"ECCENTRICITY":0.00463094,"INCLINATION":97.7722,"RA_OF_ASC_NODE":220.2879,"ARG_OF_PERICENTER":47.7716,"MEAN_ANOMALY":312.7415,"EPHEMERIS_TYPE":0,"CLASSIFICATION_TYPE":"U","NORAD_CAT_ID":40012,"ELEMENT_SET_NO":999,"REV_AT_EPOCH":63091,"BSTAR":0.00054168276,"MEAN_MOTION_DOT":4.967e-5,"MEAN_MOTION_DDOT":0},{"OBJECT_NAME":"DUCHIFAT-1","OBJECT_ID":"2014-033M","EPOCH":"2026-03-06T02:00:20.118816","MEAN_MOTION":15.49284424,"ECCENTRICITY":0.000646,"INCLINATION":98.0634,"RA_OF_ASC_NODE":111.0868,"ARG_OF_PERICENTER":95.0854,"MEAN_ANOMALY":265.1132,"EPHEMERIS_TYPE":0,"CLASSIFICATION_TYPE":"U","NORAD_CAT_ID":40021,"ELEMENT_SET_NO":999,"REV_AT_EPOCH":63971,"BSTAR":0.00101087,"MEAN_MOTION_DOT":0.00055499,"MEAN_MOTION_DDOT":0},{"OBJECT_NAME":"QB50P1","OBJECT_ID":"2014-033R","EPOCH":"2026-03-06T11:26:36.828096","MEAN_MOTION":15.16433497,"ECCENTRICITY":0.00079299,"INCLINATION":98.1009,"RA_OF_ASC_NODE":69.5425,"ARG_OF_PERICENTER":206.5522,"MEAN_ANOMALY":153.5304,"EPHEMERIS_TYPE":0,"CLASSIFICATION_TYPE":"U","NORAD_CAT_ID":40025,"ELEMENT_SET_NO":999,"REV_AT_EPOCH":63745,"BSTAR":0.00060497038,"MEAN_MOTION_DOT":0.00011707,"MEAN_MOTION_DDOT":0},{"OBJECT_NAME":"LILACSAT-2","OBJECT_ID":"2015-049K","EPOCH":"2026-03-06T20:44:50.836128","MEAN_MOTION":15.47896322,"ECCENTRICITY":0.0005602,"INCLINATION":97.481,"RA_OF_ASC_NODE":98.9906,"ARG_OF_PERICENTER":259.483,"MEAN_ANOMALY":100.5789,"EPHEMERIS_TYPE":0,"CLASSIFICATION_TYPE":"U","NORAD_CAT_ID":40908,"ELEMENT_SET_NO":999,"REV_AT_EPOCH":57990,"BSTAR":0.00041798,"MEAN_MOTION_DOT":0.00021712,"MEAN_MOTION_DDOT":0},{"OBJECT_NAME":"FOX-1A (AO-85)","OBJECT_ID":"2015-058D","EPOCH":"2026-03-06T18:34:41.414016","MEAN_MOTION":14.90324942,"ECCENTRICITY":0.0129053,"INCLINATION":64.7742,"RA_OF_ASC_NODE":237.0932,"ARG_OF_PERICENTER":97.0911,"MEAN_ANOMALY":264.4896,"EPHEMERIS_TYPE":0,"CLASSIFICATION_TYPE":"U","NORAD_CAT_ID":40967,"ELEMENT_SET_NO":999,"REV_AT_EPOCH":9830,"BSTAR":0.0004841,"MEAN_MOTION_DOT":5.359e-5,"MEAN_MOTION_DDOT":0},{"OBJECT_NAME":"CAS-2T & KS-1Q","OBJECT_ID":"2016-066G","EPOCH":"2026-03-06T10:49:58.134720","MEAN_MOTION":14.44457397,"ECCENTRICITY":0.03437605,"INCLINATION":98.3892,"RA_OF_ASC_NODE":142.3371,"ARG_OF_PERICENTER":81.2793,"MEAN_ANOMALY":282.7167,"EPHEMERIS_TYPE":0,"CLASSIFICATION_TYPE":"U","NORAD_CAT_ID":41847,"ELEMENT_SET_NO":999,"REV_AT_EPOCH":48996,"BSTAR":0.00025864721,"MEAN_MOTION_DOT":1.795e-5,"MEAN_MOTION_DDOT":0},{"OBJECT_NAME":"RADFXSAT (FOX-1B)","OBJECT_ID":"2017-073E","EPOCH":"2026-03-06T03:37:46.812864","MEAN_MOTION":15.10783055,"ECCENTRICITY":0.01549464,"INCLINATION":97.4864,"RA_OF_ASC_NODE":294.5226,"ARG_OF_PERICENTER":324.4724,"MEAN_ANOMALY":34.6264,"EPHEMERIS_TYPE":0,"CLASSIFICATION_TYPE":"U","NORAD_CAT_ID":43017,"ELEMENT_SET_NO":999,"REV_AT_EPOCH":44982,"BSTAR":0.00052275489,"MEAN_MOTION_DOT":0.00011518,"MEAN_MOTION_DDOT":0},{"OBJECT_NAME":"DIWATA-2B","OBJECT_ID":"2018-084H","EPOCH":"2026-03-06T20:29:21.192000","MEAN_MOTION":14.99944492,"ECCENTRICITY":0.001147,"INCLINATION":98.1035,"RA_OF_ASC_NODE":257.7745,"ARG_OF_PERICENTER":135.6021,"MEAN_ANOMALY":224.6122,"EPHEMERIS_TYPE":0,"CLASSIFICATION_TYPE":"U","NORAD_CAT_ID":43678,"ELEMENT_SET_NO":999,"REV_AT_EPOCH":40087,"BSTAR":0.00032845,"MEAN_MOTION_DOT":4.019e-5,"MEAN_MOTION_DDOT":0},{"OBJECT_NAME":"ES'HAIL 2","OBJECT_ID":"2018-090A","EPOCH":"2026-03-05T12:24:28.317024","MEAN_MOTION":1.00272028,"ECCENTRICITY":0.0002702,"INCLINATION":0.0102,"RA_OF_ASC_NODE":207.479,"ARG_OF_PERICENTER":172.6625,"MEAN_ANOMALY":355.0003,"EPHEMERIS_TYPE":0,"CLASSIFICATION_TYPE":"U","NORAD_CAT_ID":43700,"ELEMENT_SET_NO":999,"REV_AT_EPOCH":2663,"BSTAR":0,"MEAN_MOTION_DOT":1.37e-6,"MEAN_MOTION_DDOT":0},{"OBJECT_NAME":"FOX-1CLIFF (AO-95)","OBJECT_ID":"2018-099N","EPOCH":"2026-03-06T10:14:26.244096","MEAN_MOTION":15.24305372,"ECCENTRICITY":0.00086374,"INCLINATION":97.4512,"RA_OF_ASC_NODE":126.1666,"ARG_OF_PERICENTER":359.283,"MEAN_ANOMALY":0.8394,"EPHEMERIS_TYPE":0,"CLASSIFICATION_TYPE":"U","NORAD_CAT_ID":43770,"ELEMENT_SET_NO":999,"REV_AT_EPOCH":39755,"BSTAR":0.00057434427,"MEAN_MOTION_DOT":0.00013994,"MEAN_MOTION_DDOT":0},{"OBJECT_NAME":"ITASAT","OBJECT_ID":"2018-099AE","EPOCH":"2026-03-06T01:58:27.701184","MEAN_MOTION":15.17603175,"ECCENTRICITY":0.00125631,"INCLINATION":97.4167,"RA_OF_ASC_NODE":118.6838,"ARG_OF_PERICENTER":359.4146,"MEAN_ANOMALY":0.7071,"EPHEMERIS_TYPE":0,"CLASSIFICATION_TYPE":"U","NORAD_CAT_ID":43786,"ELEMENT_SET_NO":999,"REV_AT_EPOCH":39726,"BSTAR":0.00042271882,"MEAN_MOTION_DOT":8.451e-5,"MEAN_MOTION_DDOT":0},{"OBJECT_NAME":"JY1SAT (JO-97)","OBJECT_ID":"2018-099AX","EPOCH":"2026-03-06T17:50:57.388128","MEAN_MOTION":15.30161965,"ECCENTRICITY":0.0004679,"INCLINATION":97.4256,"RA_OF_ASC_NODE":128.4202,"ARG_OF_PERICENTER":270.692,"MEAN_ANOMALY":89.3784,"EPHEMERIS_TYPE":0,"CLASSIFICATION_TYPE":"U","NORAD_CAT_ID":43803,"ELEMENT_SET_NO":999,"REV_AT_EPOCH":39794,"BSTAR":0.00079105,"MEAN_MOTION_DOT":0.00023062,"MEAN_MOTION_DDOT":0},{"OBJECT_NAME":"UWE-4","OBJECT_ID":"2018-111E","EPOCH":"2026-03-06T13:20:29.490432","MEAN_MOTION":15.3972592,"ECCENTRICITY":0.00080731,"INCLINATION":97.5855,"RA_OF_ASC_NODE":349.7309,"ARG_OF_PERICENTER":352.3854,"MEAN_ANOMALY":7.7267,"EPHEMERIS_TYPE":0,"CLASSIFICATION_TYPE":"U","NORAD_CAT_ID":43880,"ELEMENT_SET_NO":999,"REV_AT_EPOCH":39495,"BSTAR":0.00098072132,"MEAN_MOTION_DOT":0.00038881,"MEAN_MOTION_DDOT":0},{"OBJECT_NAME":"TIANYAN 01","OBJECT_ID":"2019-093C","EPOCH":"2026-03-06T20:35:48.986304","MEAN_MOTION":14.8633175,"ECCENTRICITY":0.0014987,"INCLINATION":97.7617,"RA_OF_ASC_NODE":140.5635,"ARG_OF_PERICENTER":66.1916,"MEAN_ANOMALY":294.087,"EPHEMERIS_TYPE":0,"CLASSIFICATION_TYPE":"U","NORAD_CAT_ID":44881,"ELEMENT_SET_NO":999,"REV_AT_EPOCH":33621,"BSTAR":6.4986e-5,"MEAN_MOTION_DOT":5.2e-6,"MEAN_MOTION_DDOT":0},{"OBJECT_NAME":"RS-44 & BREEZE-KM R/B","OBJECT_ID":"2019-096E","EPOCH":"2026-03-06T10:23:18.816288","MEAN_MOTION":12.79747385,"ECCENTRICITY":0.02180633,"INCLINATION":82.5196,"RA_OF_ASC_NODE":47.9789,"ARG_OF_PERICENTER":24.9195,"MEAN_ANOMALY":336.2247,"EPHEMERIS_TYPE":0,"CLASSIFICATION_TYPE":"U","NORAD_CAT_ID":44909,"ELEMENT_SET_NO":999,"REV_AT_EPOCH":28920,"BSTAR":-3.7596539e-5,"MEAN_MOTION_DOT":2.0e-8,"MEAN_MOTION_DDOT":0},{"OBJECT_NAME":"SALSAT","OBJECT_ID":"2020-068K","EPOCH":"2026-03-06T09:34:37.173504","MEAN_MOTION":15.28102969,"ECCENTRICITY":0.00085035,"INCLINATION":97.8855,"RA_OF_ASC_NODE":62.338,"ARG_OF_PERICENTER":310.6744,"MEAN_ANOMALY":49.3754,"EPHEMERIS_TYPE":0,"CLASSIFICATION_TYPE":"U","NORAD_CAT_ID":46495,"ELEMENT_SET_NO":999,"REV_AT_EPOCH":29965,"BSTAR":0.00041380483,"MEAN_MOTION_DOT":0.00011274,"MEAN_MOTION_DDOT":0}]
